[{"OBJECT_NAME":"QIANFAN-86","OBJECT_ID":"2025-046P","EPOCH":"2026-03-07T15:43:25.361760","MEAN_MOTION":13.51002235,"ECCENTRICITY":0.0009291,"INCLINATION":88.9757,"RA_OF_ASC_NODE":311.015,"ARG_OF_PERICENTER":245.1138,"MEAN_ANOMALY":114.9048,"EPHEMERIS_TYPE":0,"CLASSIFICATION_TYPE":"U","NORAD_CAT_ID":63172,"ELEMENT_SET_NO":999,"REV_AT_EPOCH":5901,"BSTAR":0.00024392847,"MEAN_MOTION_DOT":1.69e-6,"MEAN_MOTION_DDOT":0},{"OBJECT_NAME":"QIANFAN-87","OBJECT_ID":"2025-046Q","EPOCH":"2026-03-07T15:02:02.821056","MEAN_MOTION":13.51010577,"ECCENTRICITY":0.00099976,"INCLINATION":88.9754,"RA_OF_ASC_NODE":311.1262,"ARG_OF_PERICENTER":239.517,"MEAN_ANOMALY":120.4994,"EPHEMERIS_TYPE":0,"CLASSIFICATION_TYPE":"U","NORAD_CAT_ID":63173,"ELEMENT_SET_NO":999,"REV_AT_EPOCH":5894,"BSTAR":0.00027490457,"MEAN_MOTION_DOT":1.9e-6,"MEAN_MOTION_DDOT":0},{"OBJECT_NAME":"QIANFAN-88","OBJECT_ID":"2025-046R","EPOCH":"2026-03-07T15:25:34.635936","MEAN_MOTION":13.50998882,"ECCENTRICITY":0.00103361,"INCLINATION":88.9756,"RA_OF_ASC_NODE":311.0813,"ARG_OF_PERICENTER":249.2478,"MEAN_ANOMALY":110.7565,"EPHEMERIS_TYPE":0,"CLASSIFICATION_TYPE":"U","NORAD_CAT_ID":63174,"ELEMENT_SET_NO":999,"REV_AT_EPOCH":5897,"BSTAR":0.00023904204,"MEAN_MOTION_DOT":1.66e-6,"MEAN_MOTION_DDOT":0},{"OBJECT_NAME":"QIANFAN-89","OBJECT_ID":"2025-046S","EPOCH":"2026-03-07T14:32:27.469536","MEAN_MOTION":13.51009384,"ECCENTRICITY":0.00148709,"INCLINATION":88.9757,"RA_OF_ASC_NODE":311.2741,"ARG_OF_PERICENTER":238.862,"MEAN_ANOMALY":121.1073,"EPHEMERIS_TYPE":0,"CLASSIFICATION_TYPE":"U","NORAD_CAT_ID":63175,"ELEMENT_SET_NO":999,"REV_AT_EPOCH":5886,"BSTAR":0.00023965798,"MEAN_MOTION_DOT":1.67e-6,"MEAN_MOTION_DDOT":0},{"OBJECT_NAME":"QIANFAN-90","OBJECT_ID":"2025-046T","EPOCH":"2026-03-07T15:13:58.835136","MEAN_MOTION":13.51009416,"ECCENTRICITY":0.00118289,"INCLINATION":88.9757,"RA_OF_ASC_NODE":311.2437,"ARG_OF_PERICENTER":236.582,"MEAN_ANOMALY":123.4201,"EPHEMERIS_TYPE":0,"CLASSIFICATION_TYPE":"U","NORAD_CAT_ID":63176,"ELEMENT_SET_NO":999,"REV_AT_EPOCH":5888,"BSTAR":0.00029759968,"MEAN_MOTION_DOT":2.04e-6,"MEAN_MOTION_DDOT":0},{"OBJECT_NAME":"QIANFAN-91","OBJECT_ID":"2025-233A","EPOCH":"2026-03-07T14:14:11.609088","MEAN_MOTION":13.5100467,"ECCENTRICITY":0.00019747,"INCLINATION":88.9934,"RA_OF_ASC_NODE":53.4602,"ARG_OF_PERICENTER":92.1861,"MEAN_ANOMALY":267.9516,"EPHEMERIS_TYPE":0,"CLASSIFICATION_TYPE":"U","NORAD_CAT_ID":66033,"ELEMENT_SET_NO":999,"REV_AT_EPOCH":1946,"BSTAR":5.3468841e-5,"MEAN_MOTION_DOT":4.7e-7,"MEAN_MOTION_DDOT":0},{"OBJECT_NAME":"QIANFAN-92","OBJECT_ID":"2025-233B","EPOCH":"2026-03-07T14:25:57.038304","MEAN_MOTION":13.51005897,"ECCENTRICITY":0.00019691,"INCLINATION":88.9918,"RA_OF_ASC_NODE":53.4477,"ARG_OF_PERICENTER":85.8345,"MEAN_ANOMALY":274.3031,"EPHEMERIS_TYPE":0,"CLASSIFICATION_TYPE":"U","NORAD_CAT_ID":66034,"ELEMENT_SET_NO":999,"REV_AT_EPOCH":1946,"BSTAR":7.5386e-8,"MEAN_MOTION_DOT":1.2e-7,"MEAN_MOTION_DDOT":0},{"OBJECT_NAME":"QIANFAN-93","OBJECT_ID":"2025-233C","EPOCH":"2026-03-07T14:37:48.492192","MEAN_MOTION":13.51005033,"ECCENTRICITY":0.00019421,"INCLINATION":88.9944,"RA_OF_ASC_NODE":53.4713,"ARG_OF_PERICENTER":90.6408,"MEAN_ANOMALY":269.4965,"EPHEMERIS_TYPE":0,"CLASSIFICATION_TYPE":"U","NORAD_CAT_ID":66035,"ELEMENT_SET_NO":999,"REV_AT_EPOCH":1946,"BSTAR":4.9058404e-5,"MEAN_MOTION_DOT":4.4e-7,"MEAN_MOTION_DDOT":0},{"OBJECT_NAME":"QIANFAN-94","OBJECT_ID":"2025-233D","EPOCH":"2026-03-07T14:19:49.938528","MEAN_MOTION":13.50991921,"ECCENTRICITY":0.0002071,"INCLINATION":88.9941,"RA_OF_ASC_NODE":53.3792,"ARG_OF_PERICENTER":87.6322,"MEAN_ANOMALY":272.5066,"EPHEMERIS_TYPE":0,"CLASSIFICATION_TYPE":"U","NORAD_CAT_ID":66036,"ELEMENT_SET_NO":999,"REV_AT_EPOCH":1951,"BSTAR":6.820228e-6,"MEAN_MOTION_DOT":1.6e-7,"MEAN_MOTION_DDOT":0},{"OBJECT_NAME":"QIANFAN-95","OBJECT_ID":"2025-233E","EPOCH":"2026-03-07T14:31:40.235520","MEAN_MOTION":13.51015258,"ECCENTRICITY":0.00020956,"INCLINATION":88.9939,"RA_OF_ASC_NODE":52.9246,"ARG_OF_PERICENTER":92.8335,"MEAN_ANOMALY":267.3056,"EPHEMERIS_TYPE":0,"CLASSIFICATION_TYPE":"U","NORAD_CAT_ID":66037,"ELEMENT_SET_NO":999,"REV_AT_EPOCH":1976,"BSTAR":6.214505e-6,"MEAN_MOTION_DOT":1.6e-7,"MEAN_MOTION_DDOT":0},{"OBJECT_NAME":"QIANFAN-96","OBJECT_ID":"2025-233F","EPOCH":"2026-03-07T13:20:50.889120","MEAN_MOTION":13.51004831,"ECCENTRICITY":0.00019857,"INCLINATION":88.9936,"RA_OF_ASC_NODE":53.4756,"ARG_OF_PERICENTER":94.0817,"MEAN_ANOMALY":266.0562,"EPHEMERIS_TYPE":0,"CLASSIFICATION_TYPE":"U","NORAD_CAT_ID":66038,"ELEMENT_SET_NO":999,"REV_AT_EPOCH":1945,"BSTAR":4.34042e-5,"MEAN_MOTION_DOT":4.0e-7,"MEAN_MOTION_DDOT":0},{"OBJECT_NAME":"QIANFAN-97","OBJECT_ID":"2025-233G","EPOCH":"2026-03-07T14:43:46.800768","MEAN_MOTION":13.51004162,"ECCENTRICITY":0.00019661,"INCLINATION":88.9939,"RA_OF_ASC_NODE":53.4504,"ARG_OF_PERICENTER":92.2353,"MEAN_ANOMALY":267.9024,"EPHEMERIS_TYPE":0,"CLASSIFICATION_TYPE":"U","NORAD_CAT_ID":66039,"ELEMENT_SET_NO":999,"REV_AT_EPOCH":1947,"BSTAR":2.9903728e-5,"MEAN_MOTION_DOT":3.1e-7,"MEAN_MOTION_DDOT":0},{"OBJECT_NAME":"QIANFAN-98","OBJECT_ID":"2025-233H","EPOCH":"2026-03-07T14:55:33.208896","MEAN_MOTION":13.51004673,"ECCENTRICITY":0.00024657,"INCLINATION":88.9929,"RA_OF_ASC_NODE":53.1915,"ARG_OF_PERICENTER":83.7946,"MEAN_ANOMALY":276.3486,"EPHEMERIS_TYPE":0,"CLASSIFICATION_TYPE":"U","NORAD_CAT_ID":66040,"ELEMENT_SET_NO":999,"REV_AT_EPOCH":1961,"BSTAR":4.0269597e-5,"MEAN_MOTION_DOT":3.8e-7,"MEAN_MOTION_DDOT":0},{"OBJECT_NAME":"QIANFAN-99","OBJECT_ID":"2025-233J","EPOCH":"2026-03-07T13:14:53.719296","MEAN_MOTION":13.51004956,"ECCENTRICITY":0.00023544,"INCLINATION":88.994,"RA_OF_ASC_NODE":53.4601,"ARG_OF_PERICENTER":87.5827,"MEAN_ANOMALY":272.5594,"EPHEMERIS_TYPE":0,"CLASSIFICATION_TYPE":"U","NORAD_CAT_ID":66041,"ELEMENT_SET_NO":999,"REV_AT_EPOCH":1946,"BSTAR":3.4338671e-5,"MEAN_MOTION_DOT":3.4e-7,"MEAN_MOTION_DDOT":0},{"OBJECT_NAME":"QIANFAN-100","OBJECT_ID":"2025-233K","EPOCH":"2026-03-07T14:49:39.212544","MEAN_MOTION":13.5100577,"ECCENTRICITY":0.00019501,"INCLINATION":88.9951,"RA_OF_ASC_NODE":53.369,"ARG_OF_PERICENTER":90.9965,"MEAN_ANOMALY":269.141,"EPHEMERIS_TYPE":0,"CLASSIFICATION_TYPE":"U","NORAD_CAT_ID":66042,"ELEMENT_SET_NO":999,"REV_AT_EPOCH":1952,"BSTAR":5.0381381e-5,"MEAN_MOTION_DOT":4.5e-7,"MEAN_MOTION_DDOT":0},{"OBJECT_NAME":"QIANFAN-101","OBJECT_ID":"2025-233L","EPOCH":"2026-03-07T14:26:20.117472","MEAN_MOTION":14.26737424,"ECCENTRICITY":0.00170305,"INCLINATION":88.994,"RA_OF_ASC_NODE":52.2251,"ARG_OF_PERICENTER":113.2034,"MEAN_ANOMALY":247.0956,"EPHEMERIS_TYPE":0,"CLASSIFICATION_TYPE":"U","NORAD_CAT_ID":66043,"ELEMENT_SET_NO":999,"REV_AT_EPOCH":2014,"BSTAR":0.00031463018,"MEAN_MOTION_DOT":7.77e-6,"MEAN_MOTION_DDOT":0},{"OBJECT_NAME":"QIANFAN-102","OBJECT_ID":"2025-233M","EPOCH":"2026-03-07T13:32:28.057632","MEAN_MOTION":13.5099256,"ECCENTRICITY":0.00021046,"INCLINATION":88.9938,"RA_OF_ASC_NODE":53.3709,"ARG_OF_PERICENTER":88.0546,"MEAN_ANOMALY":272.0846,"EPHEMERIS_TYPE":0,"CLASSIFICATION_TYPE":"U","NORAD_CAT_ID":66044,"ELEMENT_SET_NO":999,"REV_AT_EPOCH":1951,"BSTAR":2.568384e-5,"MEAN_MOTION_DOT":2.9e-7,"MEAN_MOTION_DDOT":0}]
