QIANFAN-86              
1 63172U 25046P   26066.65515465  .00000169  00000+0  24393-3 0  9992
2 63172  88.9757 311.0150 0009291 245.1138 114.9048 13.51002235 59015
QIANFAN-87              
1 63173U 25046Q   26066.62642154  .00000190  00000+0  27490-3 0  9991
2 63173  88.9754 311.1262 0009997 239.5170 120.4994 13.51010577 58945
QIANFAN-88              
1 63174U 25046R   26066.64276199  .00000166  00000+0  23904-3 0  9995
2 63174  88.9756 311.0813 0010336 249.2478 110.7565 13.50998882 58979
QIANFAN-89              
1 63175U 25046S   26066.60587349  .00000167  00000+0  23966-3 0  9993
2 63175  88.9757 311.2741 0014870 238.8620 121.1073 13.51009384 58862
QIANFAN-90              
1 63176U 25046T   26066.63470874  .00000204  00000+0  29760-3 0  9991
2 63176  88.9757 311.2437 0011828 236.5820 123.4201 13.51009416 58888
QIANFAN-91              
1 66033U 25233A   26066.59318992  .00000047  00000+0  53469-4 0  9990
2 66033  88.9934  53.4602 0001974  92.1861 267.9516 13.51004670 19462
QIANFAN-92              
1 66034U 25233B   26066.60135461  .00000012  00000+0  75386-7 0  9998
2 66034  88.9918  53.4477 0001969  85.8345 274.3031 13.51005897 19461
QIANFAN-93              
1 66035U 25233C   26066.60958903  .00000044  00000+0  49058-4 0  9992
2 66035  88.9944  53.4713 0001942  90.6408 269.4965 13.51005033 19462
QIANFAN-94              
1 66036U 25233D   26066.59710577  .00000016  00000+0  68202-5 0  9996
2 66036  88.9941  53.3792 0002071  87.6322 272.5066 13.50991921 19513
QIANFAN-95              
1 66037U 25233E   26066.60532680  .00000016  00000+0  62145-5 0  9996
2 66037  88.9939  52.9246 0002095  92.8335 267.3056 13.51015258 19767
QIANFAN-96              
1 66038U 25233F   26066.55614455  .00000040  00000+0  43404-4 0  9995
2 66038  88.9936  53.4756 0001985  94.0817 266.0562 13.51004831 19452
QIANFAN-97              
1 66039U 25233G   26066.61373612  .00000031  00000+0  29904-4 0  9999
2 66039  88.9939  53.4504 0001966  92.2353 267.9024 13.51004162 19473
QIANFAN-98              
1 66040U 25233H   26066.62191214  .00000038  00000+0  40270-4 0  9994
2 66040  88.9929  53.1915 0002465  83.7946 276.3486 13.51004673 19614
QIANFAN-99              
1 66041U 25233J   26066.55201064  .00000034  00000+0  34339-4 0  9997
2 66041  88.9940  53.4601 0002354  87.5827 272.5594 13.51004956 19465
QIANFAN-100             
1 66042U 25233K   26066.61781496  .00000045  00000+0  50381-4 0  9994
2 66042  88.9951  53.3690 0001950  90.9965 269.1410 13.51005770 19528
QIANFAN-101             
1 66043U 25233L   26066.60162173  .00000777  00000+0  31463-3 0  9990
2 66043  88.9940  52.2251 0017030 113.2034 247.0956 14.26737424 20141
QIANFAN-102             
1 66044U 25233M   26066.56421363  .00000029  00000+0  25684-4 0  9994
2 66044  88.9938  53.3709 0002104  88.0546 272.0846 13.50992560 19517
